start=new Date('2023-06-23T00:00:00.000Z').valueOf();
sats=[{"REV_AT_EPOCH":"7414","GP_ID":"234444340","PERIAPSIS":"538.970","TIME_SYSTEM":"UTC","COUNTRY_CODE":"US","MEAN_MOTION_DOT":"-0.00000046","APOAPSIS":"540.530","NORAD_CAT_ID":"51782","OBJECT_NAME":"STARLINK-3616","LAUNCH_DATE":"2022-02-25","SEMIMAJOR_AXIS":"6917.885","CLASSIFICATION_TYPE":"U","REF_FRAME":"TEME","TLE_LINE1":"1 51782U 22017Q   23172.59117412 -.00000046  00000-0  15210-4 0  9994","DECAY_DATE":null,"ELEMENT_SET_NO":"999","RA_OF_ASC_NODE":"122.8324","PERIOD":"95.438","ECCENTRICITY":"0.00011270","FILE":"3939351","TLE_LINE2":"2 51782  53.2156 122.8324 0001127  94.4398 265.6722 15.08838478 74145","OBJECT_ID":"2022-017Q","MEAN_MOTION":"15.08838478","SITE":"AFWTR","CENTER_NAME":"EARTH","EPOCH":"2023-06-21T14:11:17.443968","MEAN_ANOMALY":"265.6722","EPHEMERIS_TYPE":"0","OBJECT_TYPE":"PAYLOAD","ARG_OF_PERICENTER":"94.4398","MEAN_MOTION_DDOT":"0.0000000000000","MEAN_ELEMENT_THEORY":"SGP4","INCLINATION":"53.2156","BSTAR":"0.00001521000000","RCS_SIZE":"LARGE"},{"OBJECT_NAME":"STARLINK-3628","NORAD_CAT_ID":"51783","LAUNCH_DATE":"2022-02-25","APOAPSIS":"540.434","MEAN_MOTION_DOT":"-0.00001522","PERIAPSIS":"538.994","TIME_SYSTEM":"UTC","COUNTRY_CODE":"US","REV_AT_EPOCH":"7438","GP_ID":"234458294","RA_OF_ASC_NODE":"109.9750","PERIOD":"95.437","REF_FRAME":"TEME","TLE_LINE1":"1 51783U 22017R   23173.23609282 -.00001522  00000-0 -77560-4 0  9995","DECAY_DATE":null,"ELEMENT_SET_NO":"999","CLASSIFICATION_TYPE":"U","SEMIMAJOR_AXIS":"6917.849","MEAN_ANOMALY":"256.5955","CENTER_NAME":"EARTH","EPOCH":"2023-06-22T05:39:58.419648","MEAN_MOTION":"15.08850156","OBJECT_ID":"2022-017R","SITE":"AFWTR","FILE":"3939926","ECCENTRICITY":"0.00010410","TLE_LINE2":"2 51783  53.2177 109.9750 0001041 103.5154 256.5955 15.08850156 74385","RCS_SIZE":"LARGE","INCLINATION":"53.2177","BSTAR":"-0.00007756000000","MEAN_ELEMENT_THEORY":"SGP4","MEAN_MOTION_DDOT":"0.0000000000000","ARG_OF_PERICENTER":"103.5154","EPHEMERIS_TYPE":"0","OBJECT_TYPE":"PAYLOAD"},{"NORAD_CAT_ID":"51784","OBJECT_NAME":"STARLINK-3632","LAUNCH_DATE":"2022-02-25","APOAPSIS":"540.482","MEAN_MOTION_DOT":"-0.00000018","PERIAPSIS":"539.012","TIME_SYSTEM":"UTC","COUNTRY_CODE":"US","REV_AT_EPOCH":"7415","GP_ID":"234444353","RA_OF_ASC_NODE":"122.8453","PERIOD":"95.438","REF_FRAME":"TEME","TLE_LINE1":"1 51784U 22017S   23172.58653411 -.00000018  00000-0  16937-4 0  9995","ELEMENT_SET_NO":"999","DECAY_DATE":null,"CLASSIFICATION_TYPE":"U","SEMIMAJOR_AXIS":"6917.882","MEAN_ANOMALY":"267.8795","CENTER_NAME":"EARTH","EPOCH":"2023-06-21T14:04:36.547104","OBJECT_ID":"2022-017S","MEAN_MOTION":"15.08839430","SITE":"AFWTR","FILE":"3939352","ECCENTRICITY":"0.00010620","TLE_LINE2":"2 51784  53.2167 122.8453 0001062  92.2319 267.8795 15.08839430 74153","RCS_SIZE":"LARGE","INCLINATION":"53.2167","BSTAR":"0.00001693700000","MEAN_ELEMENT_THEORY":"SGP4","MEAN_MOTION_DDOT":"0.0000000000000","ARG_OF_PERICENTER":"92.2319","OBJECT_TYPE":"PAYLOAD","EPHEMERIS_TYPE":"0"},{"MEAN_ELEMENT_THEORY":"SGP4","INCLINATION":"53.2165","BSTAR":"0.00002442900000","RCS_SIZE":"LARGE","EPHEMERIS_TYPE":"0","OBJECT_TYPE":"PAYLOAD","ARG_OF_PERICENTER":"95.5557","MEAN_MOTION_DDOT":"0.0000000000000","CENTER_NAME":"EARTH","EPOCH":"2023-06-22T05:27:59.320224","MEAN_ANOMALY":"264.5559","ECCENTRICITY":"0.00010810","FILE":"3939926","TLE_LINE2":"2 51785  53.2165 109.9613 0001081  95.5557 264.5559 15.08847064 74432","MEAN_MOTION":"15.08847064","OBJECT_ID":"2022-017T","SITE":"AFWTR","CLASSIFICATION_TYPE":"U","REF_FRAME":"TEME","ELEMENT_SET_NO":"999","TLE_LINE1":"1 51785U 22017T   23173.22776991  .00000101  00000-0  24429-4 0  9994","DECAY_DATE":null,"RA_OF_ASC_NODE":"109.9613","PERIOD":"95.437","SEMIMAJOR_AXIS":"6917.859","NORAD_CAT_ID":"51785","OBJECT_NAME":"STARLINK-3646","LAUNCH_DATE":"2022-02-25","REV_AT_EPOCH":"7443","GP_ID":"234458296","PERIAPSIS":"538.976","TIME_SYSTEM":"UTC","COUNTRY_CODE":"US","MEAN_MOTION_DOT":"0.00000101","APOAPSIS":"540.472"},{"APOAPSIS":"540.642","MEAN_MOTION_DOT":"-0.00000061","TIME_SYSTEM":"UTC","COUNTRY_CODE":"US","PERIAPSIS":"538.846","GP_ID":"234451374","REV_AT_EPOCH":"7428","LAUNCH_DATE":"2022-02-25","OBJECT_NAME":"STARLINK-3638","NORAD_CAT_ID":"51786","SEMIMAJOR_AXIS":"6917.879","PERIOD":"95.438","RA_OF_ASC_NODE":"120.2034","TLE_LINE1":"1 51786U 22017U   23173.17533511 -.00000061  00000-0  14260-4 0  9996","DECAY_DATE":null,"ELEMENT_SET_NO":"999","REF_FRAME":"TEME","CLASSIFICATION_TYPE":"U","SITE":"AFWTR","MEAN_MOTION":"15.08840544","OBJECT_ID":"2022-017U","TLE_LINE2":"2 51786  53.2170 120.2034 0001298  89.3305 270.7836 15.08840544 74280","ECCENTRICITY":"0.00012980","FILE":"3939656","MEAN_ANOMALY":"270.7836","EPOCH":"2023-06-22T04:12:28.953504","CENTER_NAME":"EARTH","ARG_OF_PERICENTER":"89.3305","MEAN_MOTION_DDOT":"0.0000000000000","OBJECT_TYPE":"PAYLOAD","EPHEMERIS_TYPE":"0","RCS_SIZE":"LARGE","BSTAR":"0.00001426000000","INCLINATION":"53.2170","MEAN_ELEMENT_THEORY":"SGP4"},{"SEMIMAJOR_AXIS":"6917.880","RA_OF_ASC_NODE":"122.8105","PERIOD":"95.438","REF_FRAME":"TEME","TLE_LINE1":"1 51787U 22017V   23172.59389394 -.00000248  00000-0  24876-5 0  9992","ELEMENT_SET_NO":"999","DECAY_DATE":null,"CLASSIFICATION_TYPE":"U","APOAPSIS":"540.551","MEAN_MOTION_DOT":"-0.00000248","PERIAPSIS":"538.938","COUNTRY_CODE":"US","TIME_SYSTEM":"UTC","REV_AT_EPOCH":"7414","GP_ID":"234444363","NORAD_CAT_ID":"51787","OBJECT_NAME":"STARLINK-3619","LAUNCH_DATE":"2022-02-25","MEAN_MOTION_DDOT":"0.0000000000000","ARG_OF_PERICENTER":"89.8769","EPHEMERIS_TYPE":"0","OBJECT_TYPE":"PAYLOAD","RCS_SIZE":"LARGE","INCLINATION":"53.2159","BSTAR":"0.00000248760000","MEAN_ELEMENT_THEORY":"SGP4","MEAN_MOTION":"15.08840217","OBJECT_ID":"2022-017V","SITE":"AFWTR","FILE":"3939352","ECCENTRICITY":"0.00011660","TLE_LINE2":"2 51787  53.2159 122.8105 0001166  89.8769 270.2357 15.08840217 74143","MEAN_ANOMALY":"270.2357","CENTER_NAME":"EARTH","EPOCH":"2023-06-21T14:15:12.436416"},{"LAUNCH_DATE":"2022-02-25","OBJECT_NAME":"STARLINK-3641","NORAD_CAT_ID":"51788","MEAN_MOTION_DOT":"0.00000045","APOAPSIS":"540.639","GP_ID":"234451373","REV_AT_EPOCH":"7423","COUNTRY_CODE":"US","TIME_SYSTEM":"UTC","PERIAPSIS":"538.857","ELEMENT_SET_NO":"999","TLE_LINE1":"1 51788U 22017W   23173.16429513  .00000045  00000-0  20917-4 0  9990","DECAY_DATE":null,"REF_FRAME":"TEME","PERIOD":"95.438","RA_OF_ASC_NODE":"120.2513","CLASSIFICATION_TYPE":"U","SEMIMAJOR_AXIS":"6917.883","MEAN_ANOMALY":"257.8261","EPOCH":"2023-06-22T03:56:35.099232","CENTER_NAME":"EARTH","TLE_LINE2":"2 51788  53.2172 120.2513 0001288 102.2876 257.8261 15.08839154 74231","ECCENTRICITY":"0.00012880","FILE":"3939656","SITE":"AFWTR","OBJECT_ID":"2022-017W","MEAN_MOTION":"15.08839154","RCS_SIZE":"LARGE","MEAN_ELEMENT_THEORY":"SGP4","BSTAR":"0.00002091700000","INCLINATION":"53.2172","MEAN_MOTION_DDOT":"0.0000000000000","ARG_OF_PERICENTER":"102.2876","EPHEMERIS_TYPE":"0","OBJECT_TYPE":"PAYLOAD"},{"RCS_SIZE":"LARGE","BSTAR":"0.00002954400000","INCLINATION":"53.2175","MEAN_ELEMENT_THEORY":"SGP4","ARG_OF_PERICENTER":"86.7132","MEAN_MOTION_DDOT":"0.0000000000000","OBJECT_TYPE":"PAYLOAD","EPHEMERIS_TYPE":"0","MEAN_ANOMALY":"273.4017","EPOCH":"2023-06-22T04:17:47.056704","CENTER_NAME":"EARTH","SITE":"AFWTR","MEAN_MOTION":"15.08838257","OBJECT_ID":"2022-017X","TLE_LINE2":"2 51789  53.2175 120.1840 0001374  86.7132 273.4017 15.08838257 74241","ECCENTRICITY":"0.00013740","FILE":"3939656","PERIOD":"95.438","RA_OF_ASC_NODE":"120.1840","ELEMENT_SET_NO":"999","TLE_LINE1":"1 51789U 22017X   23173.17901686  .00000182  00000-0  29544-4 0  9995","DECAY_DATE":null,"REF_FRAME":"TEME","CLASSIFICATION_TYPE":"U","SEMIMAJOR_AXIS":"6917.886","LAUNCH_DATE":"2022-02-25","NORAD_CAT_ID":"51789","OBJECT_NAME":"STARLINK-3639","APOAPSIS":"540.701","MEAN_MOTION_DOT":"0.00000182","COUNTRY_CODE":"US","TIME_SYSTEM":"UTC","PERIAPSIS":"538.800","GP_ID":"234451376","REV_AT_EPOCH":"7424"},{"TLE_LINE1":"1 51790U 22017Y   23173.55805511  .00000715  00000-0  63013-4 0  9990","DECAY_DATE":null,"ELEMENT_SET_NO":"999","REF_FRAME":"TEME","PERIOD":"95.438","RA_OF_ASC_NODE":"118.4814","CLASSIFICATION_TYPE":"U","SEMIMAJOR_AXIS":"6917.883","LAUNCH_DATE":"2022-02-25","NORAD_CAT_ID":"51790","OBJECT_NAME":"STARLINK-3631","MEAN_MOTION_DOT":"0.00000715","APOAPSIS":"540.618","GP_ID":"234465227","REV_AT_EPOCH":"7434","COUNTRY_CODE":"US","TIME_SYSTEM":"UTC","PERIAPSIS":"538.878","RCS_SIZE":"LARGE","MEAN_ELEMENT_THEORY":"SGP4","BSTAR":"0.00006301300000","INCLINATION":"53.2170","MEAN_MOTION_DDOT":"0.0000000000000","ARG_OF_PERICENTER":"89.7423","EPHEMERIS_TYPE":"0","OBJECT_TYPE":"PAYLOAD","MEAN_ANOMALY":"270.3713","EPOCH":"2023-06-22T13:23:35.961504","CENTER_NAME":"EARTH","TLE_LINE2":"2 51790  53.2170 118.4814 0001257  89.7423 270.3713 15.08839135 74341","FILE":"3940243","ECCENTRICITY":"0.00012570","SITE":"AFWTR","MEAN_MOTION":"15.08839135","OBJECT_ID":"2022-017Y"},{"SEMIMAJOR_AXIS":"6917.884","CLASSIFICATION_TYPE":"U","PERIOD":"95.438","RA_OF_ASC_NODE":"120.2189","DECAY_DATE":null,"TLE_LINE1":"1 51791U 22017Z   23173.17165950 -.00001320  00000-0 -64862-4 0  9993","ELEMENT_SET_NO":"999","REF_FRAME":"TEME","TIME_SYSTEM":"UTC","COUNTRY_CODE":"US","PERIAPSIS":"538.909","GP_ID":"234451372","REV_AT_EPOCH":"7423","APOAPSIS":"540.590","MEAN_MOTION_DOT":"-0.00001320","LAUNCH_DATE":"2022-02-25","OBJECT_NAME":"STARLINK-3602","NORAD_CAT_ID":"51791","OBJECT_TYPE":"PAYLOAD","EPHEMERIS_TYPE":"0","ARG_OF_PERICENTER":"86.2132","MEAN_MOTION_DDOT":"0.0000000000000","BSTAR":"-0.00006486200000","INCLINATION":"53.2175","MEAN_ELEMENT_THEORY":"SGP4","RCS_SIZE":"LARGE","SITE":"AFWTR","OBJECT_ID":"2022-017Z","MEAN_MOTION":"15.08838659","TLE_LINE2":"2 51791  53.2175 120.2189 0001215  86.2132 273.8999 15.08838659 74238","ECCENTRICITY":"0.00012150","FILE":"3939656","EPOCH":"2023-06-22T04:07:11.380800","CENTER_NAME":"EARTH","MEAN_ANOMALY":"273.8999"}];
